{
  "type": "FeatureCollection",
  "features": [
    {
      "type": "Feature",
      "properties": {
        "norad_id": 66624,
        "name": "STARLINK-35927",
        "group": "last-30-days",
        "lat": -35.227162391261494,
        "lon": 21.795853238170988,
        "alt_km": 423.329770975407,
        "timestamp": "2025-12-16T08:59:41.907456+00:00",
        "meta_object_name": "STARLINK-35927",
        "meta_object_id": "2025-271H",
        "meta_epoch": "2025-12-15T22:00:01.999584",
        "meta_mean_motion": 15.49256303,
        "meta_eccentricity": 8.62e-05,
        "meta_inclination": 53.1591,
        "meta_ra_of_asc_node": 172.0206,
        "meta_arg_of_pericenter": 76.8884,
        "meta_mean_anomaly": 112.6749,
        "meta_ephemeris_type": 0,
        "meta_classification_type": "U",
        "meta_norad_cat_id": 66624,
        "meta_element_set_no": 999,
        "meta_rev_at_epoch": 475,
        "meta_bstar": 0.0014195786,
        "meta_mean_motion_dot": 0.00079159,
        "meta_mean_motion_ddot": 0,
        "tle_line1": "1 66624U 25271H   25349.91668981  .00079159  00000+0  14196-2 0  9995",
        "tle_line2": "2 66624  53.1591 172.0206 0000862  76.8884 112.6749 15.49256303  4759"
      },
      "geometry": {
        "type": "Point",
        "coordinates": [
          21.795853238170988,
          -35.227162391261494
        ]
      }
    },
    {
      "type": "Feature",
      "properties": {
        "norad_id": 66625,
        "name": "STARLINK-35929",
        "group": "last-30-days",
        "lat": -37.773584947021725,
        "lon": 25.34212231698269,
        "alt_km": 423.65249714847687,
        "timestamp": "2025-12-16T08:59:41.907494+00:00",
        "meta_object_name": "STARLINK-35929",
        "meta_object_id": "2025-271J",
        "meta_epoch": "2025-12-15T22:00:01.999584",
        "meta_mean_motion": 15.49255345,
        "meta_eccentricity": 0.00011369,
        "meta_inclination": 53.1591,
        "meta_ra_of_asc_node": 172.0116,
        "meta_arg_of_pericenter": 75.8368,
        "meta_mean_anomaly": 117.5592,
        "meta_ephemeris_type": 0,
        "meta_classification_type": "U",
        "meta_norad_cat_id": 66625,
        "meta_element_set_no": 999,
        "meta_rev_at_epoch": 475,
        "meta_bstar": 0.0014312864,
        "meta_mean_motion_dot": 0.0007982,
        "meta_mean_motion_ddot": 0,
        "tle_line1": "1 66625U 25271J   25349.91668981  .00079820  00000+0  14313-2 0  9992",
        "tle_line2": "2 66625  53.1591 172.0116 0001136  75.8368 117.5592 15.49255345  4756"
      },
      "geometry": {
        "type": "Point",
        "coordinates": [
          25.34212231698269,
          -37.773584947021725
        ]
      }
    },
    {
      "type": "Feature",
      "properties": {
        "norad_id": 66626,
        "name": "STARLINK-35902",
        "group": "last-30-days",
        "lat": -35.479836757083135,
        "lon": 22.13061663352849,
        "alt_km": 434.25172549114995,
        "timestamp": "2025-12-16T08:59:41.907507+00:00",
        "meta_object_name": "STARLINK-35902",
        "meta_object_id": "2025-271K",
        "meta_epoch": "2025-12-15T22:00:01.999584",
        "meta_mean_motion": 15.4767313,
        "meta_eccentricity": 0.00013569,
        "meta_inclination": 53.159,
        "meta_ra_of_asc_node": 172.0103,
        "meta_arg_of_pericenter": 73.9682,
        "meta_mean_anomaly": 120.2849,
        "meta_ephemeris_type": 0,
        "meta_classification_type": "U",
        "meta_norad_cat_id": 66626,
        "meta_element_set_no": 999,
        "meta_rev_at_epoch": 475,
        "meta_bstar": -0.042369082,
        "meta_mean_motion_dot": -0.01988274,
        "meta_mean_motion_ddot": 0,
        "tle_line1": "1 66626U 25271K   25349.91668981 -.01988274  00000+0 -42369-1 0  9999",
        "tle_line2": "2 66626  53.1590 172.0103 0001356  73.9682 120.2849 15.47673130  4754"
      },
      "geometry": {
        "type": "Point",
        "coordinates": [
          22.13061663352849,
          -35.479836757083135
        ]
      }
    },
    {
      "type": "Feature",
      "properties": {
        "norad_id": 66627,
        "name": "STARLINK-35904",
        "group": "last-30-days",
        "lat": -40.20534789737101,
        "lon": 29.136885882121707,
        "alt_km": 423.62900009833174,
        "timestamp": "2025-12-16T08:59:41.907523+00:00",
        "meta_object_name": "STARLINK-35904",
        "meta_object_id": "2025-271L",
        "meta_epoch": "2025-12-15T22:00:01.999584",
        "meta_mean_motion": 15.49256991,
        "meta_eccentricity": 8.5e-05,
        "meta_inclination": 53.159,
        "meta_ra_of_asc_node": 172.0038,
        "meta_arg_of_pericenter": 68.9376,
        "meta_mean_anomaly": 128.2915,
        "meta_ephemeris_type": 0,
        "meta_classification_type": "U",
        "meta_norad_cat_id": 66627,
        "meta_element_set_no": 999,
        "meta_rev_at_epoch": 459,
        "meta_bstar": 0.0014187127,
        "meta_mean_motion_dot": 0.00079112,
        "meta_mean_motion_ddot": 0,
        "tle_line1": "1 66627U 25271L   25349.91668981  .00079112  00000+0  14187-2 0  9997",
        "tle_line2": "2 66627  53.1590 172.0038 0000850  68.9376 128.2915 15.49256991  4592"
      },
      "geometry": {
        "type": "Point",
        "coordinates": [
          29.136885882121707,
          -40.20534789737101
        ]
      }
    },
    {
      "type": "Feature",
      "properties": {
        "norad_id": 66628,
        "name": "STARLINK-35862",
        "group": "last-30-days",
        "lat": -41.37151351572941,
        "lon": 31.133811039800218,
        "alt_km": 423.675348410502,
        "timestamp": "2025-12-16T08:59:41.907533+00:00",
        "meta_object_name": "STARLINK-35862",
        "meta_object_id": "2025-271M",
        "meta_epoch": "2025-12-15T22:00:01.999584",
        "meta_mean_motion": 15.49256559,
        "meta_eccentricity": 8.442e-05,
        "meta_inclination": 53.159,
        "meta_ra_of_asc_node": 171.9998,
        "meta_arg_of_pericenter": 70.451,
        "meta_mean_anomaly": 128.6928,
        "meta_ephemeris_type": 0,
        "meta_classification_type": "U",
        "meta_norad_cat_id": 66628,
        "meta_element_set_no": 999,
        "meta_rev_at_epoch": 475,
        "meta_bstar": 0.0014344834,
        "meta_mean_motion_dot": 0.00080004,
        "meta_mean_motion_ddot": 0,
        "tle_line1": "1 66628U 25271M   25349.91668981  .00080004  00000+0  14345-2 0  9996",
        "tle_line2": "2 66628  53.1590 171.9998 0000844  70.4510 128.6928 15.49256559  4753"
      },
      "geometry": {
        "type": "Point",
        "coordinates": [
          31.133811039800218,
          -41.37151351572941
        ]
      }
    },
    {
      "type": "Feature",
      "properties": {
        "norad_id": 66629,
        "name": "STARLINK-35956",
        "group": "last-30-days",
        "lat": -42.50406064953726,
        "lon": 33.20747919943597,
        "alt_km": 423.69478453303964,
        "timestamp": "2025-12-16T08:59:41.907543+00:00",
        "meta_object_name": "STARLINK-35956",
        "meta_object_id": "2025-271N",
        "meta_epoch": "2025-12-15T22:00:01.999584",
        "meta_mean_motion": 15.49258029,
        "meta_eccentricity": 8.348e-05,
        "meta_inclination": 53.159,
        "meta_ra_of_asc_node": 171.9963,
        "meta_arg_of_pericenter": 77.628,
        "meta_mean_anomaly": 123.4314,
        "meta_ephemeris_type": 0,
        "meta_classification_type": "U",
        "meta_norad_cat_id": 66629,
        "meta_element_set_no": 999,
        "meta_rev_at_epoch": 475,
        "meta_bstar": 0.0014290423,
        "meta_mean_motion_dot": 0.000797,
        "meta_mean_motion_ddot": 0,
        "tle_line1": "1 66629U 25271N   25349.91668981  .00079700  00000+0  14290-2 0  9997",
        "tle_line2": "2 66629  53.1590 171.9963 0000834  77.6280 123.4314 15.49258029  4754"
      },
      "geometry": {
        "type": "Point",
        "coordinates": [
          33.20747919943597,
          -42.50406064953726
        ]
      }
    },
    {
      "type": "Feature",
      "properties": {
        "norad_id": 66630,
        "name": "STARLINK-35949",
        "group": "last-30-days",
        "lat": -43.593364901847096,
        "lon": 35.34563627460218,
        "alt_km": 423.91893993041776,
        "timestamp": "2025-12-16T08:59:41.907556+00:00",
        "meta_object_name": "STARLINK-35949",
        "meta_object_id": "2025-271P",
        "meta_epoch": "2025-12-15T22:00:01.999584",
        "meta_mean_motion": 15.49260419,
        "meta_eccentricity": 0.0001046,
        "meta_inclination": 53.159,
        "meta_ra_of_asc_node": 171.9909,
        "meta_arg_of_pericenter": 64.9319,
        "meta_mean_anomaly": 138.0392,
        "meta_ephemeris_type": 0,
        "meta_classification_type": "U",
        "meta_norad_cat_id": 66630,
        "meta_element_set_no": 999,
        "meta_rev_at_epoch": 475,
        "meta_bstar": 0.0013660281,
        "meta_mean_motion_dot": 0.00076138,
        "meta_mean_motion_ddot": 0,
        "tle_line1": "1 66630U 25271P   25349.91668981  .00076138  00000+0  13660-2 0  9991",
        "tle_line2": "2 66630  53.1590 171.9909 0001046  64.9319 138.0392 15.49260419  4758"
      },
      "geometry": {
        "type": "Point",
        "coordinates": [
          35.34563627460218,
          -43.593364901847096
        ]
      }
    }
  ]
}